[{"OBJECT_NAME":"ONEWEB-0298","OBJECT_ID":"2021-075N","EPOCH":"2026-03-09T20:49:20.209728","MEAN_MOTION":13.17649039,"ECCENTRICITY":0.00016838,"INCLINATION":87.9151,"RA_OF_ASC_NODE":25.59,"ARG_OF_PERICENTER":79.4707,"MEAN_ANOMALY":280.6614,"EPHEMERIS_TYPE":0,"CLASSIFICATION_TYPE":"U","NORAD_CAT_ID":49087,"ELEMENT_SET_NO":999,"REV_AT_EPOCH":22054,"BSTAR":-0.00038805506,"MEAN_MOTION_DOT":-1.38e-6,"MEAN_MOTION_DDOT":0},{"OBJECT_NAME":"COSMOS 770","OBJECT_ID":"1975-089A","EPOCH":"2026-03-09T23:14:15.970560","MEAN_MOTION":13.19804498,"ECCENTRICITY":0.00283758,"INCLINATION":82.9533,"RA_OF_ASC_NODE":75.5278,"ARG_OF_PERICENTER":350.4032,"MEAN_ANOMALY":70.2298,"EPHEMERIS_TYPE":0,"CLASSIFICATION_TYPE":"U","NORAD_CAT_ID":8325,"ELEMENT_SET_NO":999,"REV_AT_EPOCH":43030,"BSTAR":3.5508058e-5,"MEAN_MOTION_DOT":2.7e-7,"MEAN_MOTION_DDOT":0}]
